[{"OBJECT_NAME":"STARLINK-33778","OBJECT_ID":"2025-094P","EPOCH":"2026-03-09T21:36:57.111264","MEAN_MOTION":15.00368707,"ECCENTRICITY":0.00046794,"INCLINATION":70.0014,"RA_OF_ASC_NODE":233.9626,"ARG_OF_PERICENTER":283.7063,"MEAN_ANOMALY":76.3576,"EPHEMERIS_TYPE":0,"CLASSIFICATION_TYPE":"U","NORAD_CAT_ID":63877,"ELEMENT_SET_NO":999,"REV_AT_EPOCH":4723,"BSTAR":0.077170439,"MEAN_MOTION_DOT":0.01050264,"MEAN_MOTION_DDOT":0},{"OBJECT_NAME":"HELIOS 1A","OBJECT_ID":"1995-033A","EPOCH":"2026-03-09T15:20:38.403168","MEAN_MOTION":15.05208405,"ECCENTRICITY":0.0012543,"INCLINATION":98.2085,"RA_OF_ASC_NODE":312.7113,"ARG_OF_PERICENTER":11.1866,"MEAN_ANOMALY":348.9636,"EPHEMERIS_TYPE":0,"CLASSIFICATION_TYPE":"U","NORAD_CAT_ID":23605,"ELEMENT_SET_NO":999,"REV_AT_EPOCH":65318,"BSTAR":0.00025897,"MEAN_MOTION_DOT":3.631e-5,"MEAN_MOTION_DDOT":0}]
